[{"OBJECT_NAME":"STARLINK-35231","OBJECT_ID":"2025-221AC","EPOCH":"2026-03-19T14:22:47.948448","MEAN_MOTION":15.30206308,"ECCENTRICITY":0.0001254,"INCLINATION":53.1594,"RA_OF_ASC_NODE":42.8034,"ARG_OF_PERICENTER":90.0444,"MEAN_ANOMALY":270.0701,"EPHEMERIS_TYPE":0,"CLASSIFICATION_TYPE":"U","NORAD_CAT_ID":65849,"ELEMENT_SET_NO":999,"REV_AT_EPOCH":2759,"BSTAR":0.00040904,"MEAN_MOTION_DOT":0.00011777,"MEAN_MOTION_DDOT":0},{"OBJECT_NAME":"STARLINK-35252","OBJECT_ID":"2025-221AD","EPOCH":"2026-03-19T14:13:40.970784","MEAN_MOTION":15.30201452,"ECCENTRICITY":0.0001278,"INCLINATION":53.1605,"RA_OF_ASC_NODE":42.764,"ARG_OF_PERICENTER":89.3905,"MEAN_ANOMALY":270.7242,"EPHEMERIS_TYPE":0,"CLASSIFICATION_TYPE":"U","NORAD_CAT_ID":65850,"ELEMENT_SET_NO":999,"REV_AT_EPOCH":2759,"BSTAR":0.00063236,"MEAN_MOTION_DOT":0.00018417,"MEAN_MOTION_DDOT":0},{"OBJECT_NAME":"STARLINK-35208","OBJECT_ID":"2025-223A","EPOCH":"2026-03-19T20:07:52.059072","MEAN_MOTION":15.30209735,"ECCENTRICITY":7.66e-5,"INCLINATION":53.1557,"RA_OF_ASC_NODE":246.7472,"ARG_OF_PERICENTER":62.2532,"MEAN_ANOMALY":297.8547,"EPHEMERIS_TYPE":0,"CLASSIFICATION_TYPE":"U","NORAD_CAT_ID":65854,"ELEMENT_SET_NO":999,"REV_AT_EPOCH":2576,"BSTAR":0.00067345,"MEAN_MOTION_DOT":0.00019645,"MEAN_MOTION_DDOT":0},{"OBJECT_NAME":"STARLINK-35200","OBJECT_ID":"2025-223B","EPOCH":"2026-03-19T20:51:56.018304","MEAN_MOTION":15.30219645,"ECCENTRICITY":6.7e-5,"INCLINATION":53.1595,"RA_OF_ASC_NODE":246.9309,"ARG_OF_PERICENTER":86.949,"MEAN_ANOMALY":273.1587,"EPHEMERIS_TYPE":0,"CLASSIFICATION_TYPE":"U","NORAD_CAT_ID":65855,"ELEMENT_SET_NO":999,"REV_AT_EPOCH":2576,"BSTAR":0.00079491,"MEAN_MOTION_DOT":0.00023272,"MEAN_MOTION_DDOT":0},{"OBJECT_NAME":"STARLINK-35459","OBJECT_ID":"2025-223C","EPOCH":"2026-03-19T18:05:06.308736","MEAN_MOTION":15.30217944,"ECCENTRICITY":6.7e-5,"INCLINATION":53.1579,"RA_OF_ASC_NODE":247.6317,"ARG_OF_PERICENTER":38.187,"MEAN_ANOMALY":321.9178,"EPHEMERIS_TYPE":0,"CLASSIFICATION_TYPE":"U","NORAD_CAT_ID":65856,"ELEMENT_SET_NO":999,"REV_AT_EPOCH":2574,"BSTAR":0.00094198,"MEAN_MOTION_DOT":0.00027659,"MEAN_MOTION_DDOT":0},{"OBJECT_NAME":"STARLINK-35489","OBJECT_ID":"2025-223D","EPOCH":"2026-03-19T19:58:54.896448","MEAN_MOTION":15.30197453,"ECCENTRICITY":9.07e-5,"INCLINATION":53.1563,"RA_OF_ASC_NODE":247.4113,"ARG_OF_PERICENTER":71.174,"MEAN_ANOMALY":288.9359,"EPHEMERIS_TYPE":0,"CLASSIFICATION_TYPE":"U","NORAD_CAT_ID":65857,"ELEMENT_SET_NO":999,"REV_AT_EPOCH":2575,"BSTAR":0.00065244,"MEAN_MOTION_DOT":0.00019012,"MEAN_MOTION_DDOT":0},{"OBJECT_NAME":"STARLINK-35199","OBJECT_ID":"2025-223E","EPOCH":"2026-03-19T18:56:37.125312","MEAN_MOTION":15.30224423,"ECCENTRICITY":0.0001087,"INCLINATION":53.1585,"RA_OF_ASC_NODE":247.1422,"ARG_OF_PERICENTER":86.6608,"MEAN_ANOMALY":273.4517,"EPHEMERIS_TYPE":0,"CLASSIFICATION_TYPE":"U","NORAD_CAT_ID":65858,"ELEMENT_SET_NO":999,"REV_AT_EPOCH":2575,"BSTAR":0.00056307,"MEAN_MOTION_DOT":0.00016367,"MEAN_MOTION_DDOT":0},{"OBJECT_NAME":"STARLINK-35408","OBJECT_ID":"2025-223F","EPOCH":"2026-03-19T16:49:17.443776","MEAN_MOTION":15.30200549,"ECCENTRICITY":9.51e-5,"INCLINATION":53.157,"RA_OF_ASC_NODE":248.0147,"ARG_OF_PERICENTER":85.5393,"MEAN_ANOMALY":274.5716,"EPHEMERIS_TYPE":0,"CLASSIFICATION_TYPE":"U","NORAD_CAT_ID":65859,"ELEMENT_SET_NO":999,"REV_AT_EPOCH":2573,"BSTAR":0.00098147,"MEAN_MOTION_DOT":0.00028822,"MEAN_MOTION_DDOT":0},{"OBJECT_NAME":"STARLINK-35303","OBJECT_ID":"2025-223G","EPOCH":"2026-03-19T17:55:59.887488","MEAN_MOTION":15.30184525,"ECCENTRICITY":0.0001126,"INCLINATION":53.1584,"RA_OF_ASC_NODE":247.5909,"ARG_OF_PERICENTER":46.449,"MEAN_ANOMALY":313.6604,"EPHEMERIS_TYPE":0,"CLASSIFICATION_TYPE":"U","NORAD_CAT_ID":65860,"ELEMENT_SET_NO":999,"REV_AT_EPOCH":2574,"BSTAR":0.0010205,"MEAN_MOTION_DOT":0.00029971,"MEAN_MOTION_DDOT":0},{"OBJECT_NAME":"STARLINK-35258","OBJECT_ID":"2025-223H","EPOCH":"2026-03-19T18:02:04.083360","MEAN_MOTION":15.30199372,"ECCENTRICITY":7.38e-5,"INCLINATION":53.1582,"RA_OF_ASC_NODE":247.6134,"ARG_OF_PERICENTER":83.0522,"MEAN_ANOMALY":277.0563,"EPHEMERIS_TYPE":0,"CLASSIFICATION_TYPE":"U","NORAD_CAT_ID":65861,"ELEMENT_SET_NO":999,"REV_AT_EPOCH":2574,"BSTAR":0.0010737,"MEAN_MOTION_DOT":0.00031575,"MEAN_MOTION_DDOT":0},{"OBJECT_NAME":"STARLINK-35386","OBJECT_ID":"2025-223J","EPOCH":"2026-03-19T18:21:49.247712","MEAN_MOTION":15.30197526,"ECCENTRICITY":7.44e-5,"INCLINATION":53.1561,"RA_OF_ASC_NODE":247.6992,"ARG_OF_PERICENTER":60.7093,"MEAN_ANOMALY":299.3982,"EPHEMERIS_TYPE":0,"CLASSIFICATION_TYPE":"U","NORAD_CAT_ID":65862,"ELEMENT_SET_NO":999,"REV_AT_EPOCH":2574,"BSTAR":0.00061881,"MEAN_MOTION_DOT":0.00018011,"MEAN_MOTION_DDOT":0},{"OBJECT_NAME":"STARLINK-35469","OBJECT_ID":"2025-223K","EPOCH":"2026-03-19T18:14:13.478208","MEAN_MOTION":15.3020578,"ECCENTRICITY":8.82e-5,"INCLINATION":53.1569,"RA_OF_ASC_NODE":247.6693,"ARG_OF_PERICENTER":68.6715,"MEAN_ANOMALY":291.438,"EPHEMERIS_TYPE":0,"CLASSIFICATION_TYPE":"U","NORAD_CAT_ID":65863,"ELEMENT_SET_NO":999,"REV_AT_EPOCH":2574,"BSTAR":0.0007381,"MEAN_MOTION_DOT":0.00021569,"MEAN_MOTION_DDOT":0},{"OBJECT_NAME":"STARLINK-35471","OBJECT_ID":"2025-223L","EPOCH":"2026-03-19T18:45:58.187808","MEAN_MOTION":15.30206457,"ECCENTRICITY":0.0001018,"INCLINATION":53.159,"RA_OF_ASC_NODE":247.0932,"ARG_OF_PERICENTER":88.0809,"MEAN_ANOMALY":272.0308,"EPHEMERIS_TYPE":0,"CLASSIFICATION_TYPE":"U","NORAD_CAT_ID":65864,"ELEMENT_SET_NO":999,"REV_AT_EPOCH":2575,"BSTAR":0.00039732,"MEAN_MOTION_DOT":0.00011429,"MEAN_MOTION_DDOT":0},{"OBJECT_NAME":"STARLINK-35475","OBJECT_ID":"2025-223M","EPOCH":"2026-03-19T18:30:46.479456","MEAN_MOTION":15.30198872,"ECCENTRICITY":8.88e-5,"INCLINATION":53.1571,"RA_OF_ASC_NODE":247.0287,"ARG_OF_PERICENTER":87.9226,"MEAN_ANOMALY":272.1876,"EPHEMERIS_TYPE":0,"CLASSIFICATION_TYPE":"U","NORAD_CAT_ID":65865,"ELEMENT_SET_NO":999,"REV_AT_EPOCH":2575,"BSTAR":0.00072378,"MEAN_MOTION_DOT":0.00021137,"MEAN_MOTION_DDOT":0},{"OBJECT_NAME":"STARLINK-35312","OBJECT_ID":"2025-223N","EPOCH":"2026-03-19T16:37:07.971168","MEAN_MOTION":15.30215524,"ECCENTRICITY":2.79e-5,"INCLINATION":53.1553,"RA_OF_ASC_NODE":247.9552,"ARG_OF_PERICENTER":13.0603,"MEAN_ANOMALY":347.0405,"EPHEMERIS_TYPE":0,"CLASSIFICATION_TYPE":"U","NORAD_CAT_ID":65866,"ELEMENT_SET_NO":999,"REV_AT_EPOCH":2573,"BSTAR":0.00087678,"MEAN_MOTION_DOT":0.00025711,"MEAN_MOTION_DDOT":0},{"OBJECT_NAME":"STARLINK-35456","OBJECT_ID":"2025-223P","EPOCH":"2026-03-19T17:24:04.509216","MEAN_MOTION":15.30206528,"ECCENTRICITY":0.0001043,"INCLINATION":53.1589,"RA_OF_ASC_NODE":247.446,"ARG_OF_PERICENTER":98.5433,"MEAN_ANOMALY":261.5686,"EPHEMERIS_TYPE":0,"CLASSIFICATION_TYPE":"U","NORAD_CAT_ID":65867,"ELEMENT_SET_NO":999,"REV_AT_EPOCH":2574,"BSTAR":0.0010689,"MEAN_MOTION_DOT":0.00031439,"MEAN_MOTION_DDOT":0},{"OBJECT_NAME":"STARLINK-35450","OBJECT_ID":"2025-223Q","EPOCH":"2026-03-19T18:00:32.905440","MEAN_MOTION":15.30202653,"ECCENTRICITY":7.9e-5,"INCLINATION":53.1588,"RA_OF_ASC_NODE":247.6093,"ARG_OF_PERICENTER":68.1672,"MEAN_ANOMALY":291.9412,"EPHEMERIS_TYPE":0,"CLASSIFICATION_TYPE":"U","NORAD_CAT_ID":65868,"ELEMENT_SET_NO":999,"REV_AT_EPOCH":2574,"BSTAR":0.00061007,"MEAN_MOTION_DOT":0.00017754,"MEAN_MOTION_DDOT":0}]
