STARLINK-35231          
1 65849U 25221AC  26078.59916607  .00011777  00000+0  40904-3 0  9992
2 65849  53.1594  42.8034 0001254  90.0444 270.0701 15.30206308 27593
STARLINK-35252          
1 65850U 25221AD  26078.59283531  .00018417  00000+0  63236-3 0  9998
2 65850  53.1605  42.7640 0001278  89.3905 270.7242 15.30201452 27591
STARLINK-35208          
1 65854U 25223A   26078.83879698  .00019645  00000+0  67345-3 0  9995
2 65854  53.1557 246.7472 0000766  62.2532 297.8547 15.30209735 25764
STARLINK-35200          
1 65855U 25223B   26078.86939836  .00023272  00000+0  79491-3 0  9996
2 65855  53.1595 246.9309 0000670  86.9490 273.1587 15.30219645 25760
STARLINK-35459          
1 65856U 25223C   26078.75354524  .00027659  00000+0  94198-3 0  9994
2 65856  53.1579 247.6317 0000670  38.1870 321.9178 15.30217944 25747
STARLINK-35489          
1 65857U 25223D   26078.83257982  .00019012  00000+0  65244-3 0  9998
2 65857  53.1563 247.4113 0000907  71.1740 288.9359 15.30197453 25755
STARLINK-35199          
1 65858U 25223E   26078.78931858  .00016367  00000+0  56307-3 0  9994
2 65858  53.1585 247.1422 0001087  86.6608 273.4517 15.30224423 25757
STARLINK-35408          
1 65859U 25223F   26078.70089634  .00028822  00000+0  98147-3 0  9990
2 65859  53.1570 248.0147 0000951  85.5393 274.5716 15.30200549 25738
STARLINK-35303          
1 65860U 25223G   26078.74722092  .00029971  00000+0  10205-2 0  9992
2 65860  53.1584 247.5909 0001126  46.4490 313.6604 15.30184525 25741
STARLINK-35258          
1 65861U 25223H   26078.75143615  .00031575  00000+0  10737-2 0  9995
2 65861  53.1582 247.6134 0000738  83.0522 277.0563 15.30199372 25745
STARLINK-35386          
1 65862U 25223J   26078.76515333  .00018011  00000+0  61881-3 0  9994
2 65862  53.1561 247.6992 0000744  60.7093 299.3982 15.30197526 25748
STARLINK-35469          
1 65863U 25223K   26078.75987822  .00021569  00000+0  73810-3 0  9997
2 65863  53.1569 247.6693 0000882  68.6715 291.4380 15.30205780 25743
STARLINK-35471          
1 65864U 25223L   26078.78192347  .00011429  00000+0  39732-3 0  9990
2 65864  53.1590 247.0932 0001018  88.0809 272.0308 15.30206457 25758
STARLINK-35475          
1 65865U 25223M   26078.77137129  .00021137  00000+0  72378-3 0  9997
2 65865  53.1571 247.0287 0000888  87.9226 272.1876 15.30198872 25758
STARLINK-35312          
1 65866U 25223N   26078.69245337  .00025711  00000+0  87678-3 0  9991
2 65866  53.1553 247.9552 0000279  13.0603 347.0405 15.30215524 25738
STARLINK-35456          
1 65867U 25223P   26078.72505219  .00031439  00000+0  10689-2 0  9995
2 65867  53.1589 247.4460 0001043  98.5433 261.5686 15.30206528 25746
STARLINK-35450          
1 65868U 25223Q   26078.75038085  .00017754  00000+0  61007-3 0  9996
2 65868  53.1588 247.6093 0000790  68.1672 291.9412 15.30202653 25745
